KUIPER-00104            
1 65142U 25171L   25285.00335378  .00022809  00000+0  62322-3 0  9993
2 65142  51.8741 108.0143 0003798 350.7917   9.2999 15.37292173 10696
KUIPER-00105            
1 65143U 25171M   25285.33335648 -.00430857  00000+0 -20423-1 0  9992
2 65143  51.8822 107.2012 0007928 336.0638 344.0788 15.20763053  3992
KUIPER-00106            
1 65144U 25171N   25285.33335648  .00034653  00000+0  22336-2 0  9991
2 65144  51.8893 109.0985 0007826 322.9919 113.7213 15.07978563  5156
KUIPER-00107            
1 65145U 25171P   25284.99886424  .00055689  00000+0  14976-2 0  9999
2 65145  51.8723 107.9832 0004392 348.3563  11.7321 15.37337797 10704
KUIPER-00108            
1 65146U 25171Q   25285.33335648 -.01516827  00000+0 -48149-1 0  9993
2 65146  51.8763 106.5644 0004881   5.4285 310.8530 15.35400323  5499
KUIPER-00109            
1 65147U 25171R   25284.92533929  .00043472  00000+0  11597-2 0  9996
2 65147  51.8759 108.2354 0005650 330.3482  29.7184 15.37691927 10688
KUIPER-00110            
1 65148U 25171S   25285.33335648  .00027314  00000+0  14590-2 0  9994
2 65148  51.8819 108.0740 0009214 331.7670 270.2489 15.14880002  5221
KUIPER-00111            
1 65149U 25171T   25285.33335648  .00039595  00000+0  30482-2 0  9997
2 65149  51.8905 110.3147 0007154 349.3431 293.1268 15.01266715  4274
